SHIJIAN-23 (SJ-23)      
1 55131U 23002A   23034.89736962 -.00000240  00000+0  00000+0 0  9999
2 55131   0.5453  95.0029 0004014  52.2795  56.1454  0.99687892   360
CZ-7A R/B               
1 55132U 23002B   23034.69289482  .00128403  11740-5  28315-2 0  9990
2 55132  16.5461  87.6617 7149986 199.9639 103.5642  2.49621959   633
2023-003A               
1 55133U 23003A   23034.85117919  .00015733  00000+0  77246-3 0  9995
2 55133  97.2692 123.9386 0007283 167.2745 304.5205 15.18135595  3889
2023-003B               
1 55134U 23003B   23034.86282840  .00007926  00000+0  35506-3 0  9991
2 55134  97.2696 124.0702 0013026 195.9446 272.9253 15.21435073  3885
2023-003C               
1 55135U 23003C   23034.85756313  .00006095  00000+0  27288-3 0  9996
2 55135  97.2723 124.0813 0012944 199.2062 255.9354 15.21551821  3905
2023-003D               
1 55136U 23003D   23034.85667554  .00010270  00000+0  45263-3 0  9998
2 55136  97.2692 124.0800 0012434 202.1551 269.9183 15.21922675  3890
2023-003E               
1 55137U 23003E   23034.85471826  .00006551  00000+0  29071-3 0  9990
2 55137  97.2670 124.0659 0013003 201.8440 253.5779 15.21826195  3895
ONEWEB-0532             
1 55140U 23004A   23034.40301912  .00003115  00000+0  31077-3 0  9996
2 55140  86.5108 275.0673 0013709 129.7256 230.5182 14.91150100  3755
ONEWEB-0533             
1 55141U 23004B   23034.73610238  .00003379  00000+0  33599-3 0  9990
2 55141  86.5102 274.9133 0014021 128.4881 231.7607 14.91305967  3801
ONEWEB-0541             
1 55142U 23004C   23035.00001157  .00049315  00000+0  72710-2 0  9993
2 55142  86.6374 275.0233 0012331 124.0002  81.3213 14.75032574  1304
ONEWEB-0543             
1 55143U 23004D   23034.40782515  .00003038  00000+0  30536-3 0  9994
2 55143  86.5128 275.0768 0011842 129.4570 230.7707 14.90850222  3753
ONEWEB-0544             
1 55144U 23004E   23034.72785975  .00003082  00000+0  30220-3 0  9992
2 55144  86.5098 274.9112 0015682 134.6190 225.6320 14.91808753  3806
ONEWEB-0560             
1 55145U 23004F   23034.72738331  .00002124  00000+0  20716-3 0  9992
2 55145  86.5115 274.9131 0015767 135.1660 225.0844 14.91842877  3800
ONEWEB-0565             
1 55146U 23004G   23034.72325497  .00002978  00000+0  28982-3 0  9998
2 55146  86.5097 274.9081 0016005 138.9707 221.2728 14.92091506  3808
ONEWEB-0567             
1 55147U 23004H   23034.65719076  .00003225  00000+0  31459-3 0  9990
2 55147  86.5089 274.9359 0015902 138.1716 222.0730 14.92031646  3794
ONEWEB-0569             
1 55148U 23004J   23034.73466298  .00003333  00000+0  33057-3 0  9991
2 55148  86.5100 274.9125 0014265 129.3916 230.8577 14.91393925  3803
ONEWEB-0570             
1 55149U 23004K   23034.66640879  .00003303  00000+0  32691-3 0  9993
2 55149  86.5098 274.9414 0014562 130.2225 230.0280 14.91467137  3793
ONEWEB-0571             
1 55150U 23004L   23034.12234864  .00006279  00000+0  61642-3 0  9992
2 55150  86.5124 275.1818 0015944 137.9466 222.2989 14.91938488  3715
ONEWEB-0572             
1 55151U 23004M   23034.40005619  .00003075  00000+0  30527-3 0  9997
2 55151  86.5110 275.0689 0014043 129.7414 230.5053 14.91337412  3755
ONEWEB-0573             
1 55152U 23004N   23034.39911981  .00003080  00000+0  30526-3 0  9999
2 55152  86.5110 275.0685 0014564 132.3363 227.9101 14.91389630  3756
ONEWEB-0588             
1 55153U 23004P   23034.61097317  .00001396  00000+0  13916-3 0  9995
2 55153  86.5129 274.9894 0011216 129.6519 230.5699 14.90742367  3784
ONEWEB-0598             
1 55154U 23004Q   23035.00001157  .00049159  00000+0  72368-2 0  9991
2 55154  86.6342 275.0206 0012298 124.9688  65.9737 14.75100431  1300
ONEWEB-0599             
1 55155U 23004R   23034.73395110 -.00005788  00000+0 -58304-3 0  9993
2 55155  86.5110 274.9199 0014222 129.2887 230.9605 14.91397628  3809
ONEWEB-0614             
1 55156U 23004S   23035.00001157  .00049402  00000+0  72558-2 0  9995
2 55156  86.6353 275.0121 0012949 127.4288  94.8330 14.75192657  1308
ONEWEB-0616             
1 55157U 23004T   23034.73758814  .00002990  00000+0  29772-3 0  9996
2 55157  86.5096 274.9136 0013614 128.0077 232.2382 14.91210196  3808
ONEWEB-0617             
1 55158U 23004U   23034.91667824 -.00005065  00000+0 -75590-3 0  9994
2 55158  86.6354 275.0857 0010554 126.7198 284.8634 14.75107906  1300
ONEWEB-0618             
1 55159U 23004V   23034.73650800  .00002980  00000+0  29619-3 0  9993
2 55159  86.5112 274.9208 0013797 128.1051 232.1423 14.91280900  3809
ONEWEB-0619             
1 55160U 23004W   23034.73206045 -.00001040  00000+0 -10672-3 0  9990
2 55160  86.5101 274.9143 0014910 130.3563 229.8969 14.91574177  3808
ONEWEB-0620             
1 55161U 23004X   23034.91667824 -.00003364  00000+0 -50247-3 0  9990
2 55161  86.6324 275.0545 0012237 128.9100 331.2480 14.75163024  1301
ONEWEB-0621             
1 55162U 23004Y   23034.91667824 -.00965221  00000+0 -22426+0 0  9994
2 55162  86.6892 275.3048 0008304 132.8163 262.3662 14.58030008  1308
ONEWEB-0622             
1 55163U 23004Z   23034.91667824 -.00004386  00000+0 -65597-3 0  9991
2 55163  86.6359 275.0790 0011938 130.5658 297.7609 14.75039557  1309
ONEWEB-0623             
1 55164U 23004AA  23034.72652168  .00003063  00000+0  29971-3 0  9991
2 55164  86.5092 274.9085 0015827 135.9534 224.2958 14.91887278  3809
ONEWEB-0624             
1 55165U 23004AB  23034.72376475  .00002992  00000+0  29136-3 0  9999
2 55165  86.5118 274.9118 0015797 138.1974 222.0464 14.92060941  3804
ONEWEB-0625             
1 55166U 23004AC  23034.73642346  .00002977  00000+0  29581-3 0  9991
2 55166  86.5099 274.9138 0013909 128.4154 231.8324 14.91281843  3808
ONEWEB-0626             
1 55167U 23004AD  23034.65625062  .00003001  00000+0  29204-3 0  9990
2 55167  86.5096 274.9367 0015968 139.2223 221.0203 14.92086568  3797
ONEWEB-0627             
1 55168U 23004AE  23034.12210598  .00002759  00000+0  26938-3 0  9997
2 55168  86.5090 275.1744 0015838 138.6092 221.6339 14.91933483  3711
ONEWEB-0628             
1 55169U 23004AF  23034.72487726  .00002880  00000+0  28092-3 0  9991
2 55169  86.5121 274.9136 0015868 137.5941 222.6517 14.91989734  3802
ONEWEB-0629             
1 55170U 23004AG  23034.72234129  .00002993  00000+0  29083-3 0  9996
2 55170  86.5103 274.9081 0016168 140.0067 220.2355 14.92144310  3803
ONEWEB-0631             
1 55171U 23004AH  23034.72669824  .00003204  00000+0  31359-3 0  9996
2 55171  86.5115 274.9132 0016236 134.8143 225.4408 14.91881158  3809
ONEWEB-0709             
1 55172U 23004AJ  23034.91667824 -.00004003  00000+0 -59873-3 0  9997
2 55172  86.6332 275.0262 0012315 131.8981  27.9197 14.75051743  1303
ONEWEB-0710             
1 55173U 23004AK  23034.72800356  .00002207  00000+0  21562-3 0  9992
2 55173  86.5103 274.9119 0015508 134.3465 225.9037 14.91799794  3803
ONEWEB-0711             
1 55174U 23004AL  23034.91667824 -.00005026  00000+0 -75047-3 0  9996
2 55174  86.6318 275.0715 0010970 128.1892 288.2989 14.75082562  1301
ONEWEB-0713             
1 55175U 23004AM  23035.00001157  .00045819  00000+0  67630-2 0  9999
2 55175  86.6327 275.0459 0011298 127.1427 355.3513 14.75014124  3832
ONEWEB-0715             
1 55176U 23004AN  23034.91667824 -.00004328  00000+0 -64736-3 0  9995
2 55176  86.6368 275.0773 0010819 127.9863 309.5809 14.75043528  1306
ONEWEB-0716             
1 55177U 23004AP  23034.73280762  .00009150  00000+0  90866-3 0  9997
2 55177  86.5113 274.9189 0014702 130.7327 229.5180 14.91539096  3803
ONEWEB-0717             
1 55178U 23004AQ  23034.20638690  .00003083  00000+0  30995-3 0  9993
2 55178  86.5085 275.1527 0011742 131.2131 229.0111 14.90856351  3726
ONEWEB-0719             
1 55179U 23004AR  23034.73774714  .00003026  00000+0  30138-3 0  9996
2 55179  86.5098 274.9144 0013514 127.9358 232.3093 14.91203833  3802
SJ-23 AKM               
1 55180U 23002C   23034.89771683 -.00000080  00000+0  00000+0 0  9994
2 55180   0.5466  95.0062 0001714 272.1705 184.3516  0.99356185   195
SS-1                    
1 55181U 98067UY  23034.66403470  .00064567  00000+0  94736-3 0  9991
2 55181  51.6389 269.3523 0004501 267.6095  92.4380 15.54899213  4400
HSKSAT                  
1 55182U 98067UZ  23034.67150109  .00046764  00000+0  71703-3 0  9999
2 55182  51.6392 269.4012 0003761 262.6262  97.4301 15.53833114  4413
OPTIMAL-1               
1 55183U 98067VA  23034.67551433  .00035588  00000+0  55701-3 0  9997
2 55183  51.6399 269.4292 0003734   4.9136 355.1890 15.53391006  4414
APSTAR 6E               
1 55239U 23005A   23035.02658369  .00000013  00000+0  00000+0 0  9998
2 55239  28.5139 324.2041 2443834 158.4709 288.3901  7.52100958  2226
CZ-2D R/B               
1 55240U 23005B   23034.87102529  .01867398 -71283-5  80502-3 0  9999
2 55240  28.4982 220.5864 0102636  13.4425 118.5585 16.09746754  3527
2023-006A               
1 55242U 23006A   23034.90229443  .00016178  00000+0  79984-3 0  9996
2 55242  43.2020  86.5824 0008751  52.3338 126.6344 15.17584534  3281
2023-006B               
1 55243U 23006B   23034.63452463  .00007083  00000+0  36189-3 0  9992
2 55243  43.2018  88.1065 0008241  48.6979  87.9269 15.17135604  3248
2023-006C               
1 55244U 23006C   23034.91376125  .00006953  00000+0  36251-3 0  9999
2 55244  43.2016  86.6820 0005628  36.9683 134.6404 15.16455539  3238
2023-006D               
1 55245U 23006D   23034.90481578  .00019582  00000+0  96965-3 0  9998
2 55245  43.2014  86.6212 0006998  45.0006 124.9013 15.17436077  3249
2023-007A               
1 55248U 23007A   23034.82668063  .00011819  00000+0  48085-3 0  9994
2 55248  97.3760 108.9769 0009271 167.0452 304.8967 15.24631960  3009
2023-007B               
1 55249U 23007B   23034.82179405  .00013952  00000+0  56014-3 0  9993
2 55249  97.3776 108.9882 0009035 176.3961 295.2517 15.25041256  2994
